CCSDS_OMM_VERS = 2.0
CREATION_DATE  = 
ORIGINATOR     = 

OBJECT_NAME    = CZ-2C R/B
OBJECT_ID      = 2022-058K
CENTER_NAME    = EARTH
REF_FRAME      = TEME
TIME_SYSTEM    = UTC
MEAN_ELEMENT_THEORY = SGP/SGP4

EPOCH          = 2025-11-26T03:38:55.226976
MEAN_MOTION    = 15.47326892
ECCENTRICITY   = .0047368
INCLINATION    = 50.1897
RA_OF_ASC_NODE = 128.0672
ARG_OF_PERICENTER = 129.9465
MEAN_ANOMALY   = 230.5679

EPHEMERIS_TYPE = 0
CLASSIFICATION_TYPE = U
NORAD_CAT_ID   = 52794
ELEMENT_SET_NO = 999
REV_AT_EPOCH   = 19406
BSTAR          = .55006E-3
MEAN_MOTION_DOT = .29551E-3
MEAN_MOTION_DDOT = 0

CCSDS_OMM_VERS = 2.0
CREATION_DATE  = 
ORIGINATOR     = 

OBJECT_NAME    = CZ-2C R/B
OBJECT_ID      = 2022-132E
CENTER_NAME    = EARTH
REF_FRAME      = TEME
TIME_SYSTEM    = UTC
MEAN_ELEMENT_THEORY = SGP/SGP4

EPOCH          = 2025-11-25T23:51:01.237248
MEAN_MOTION    = 15.53407415
ECCENTRICITY   = .00239848
INCLINATION    = 97.2948
RA_OF_ASC_NODE = 325.8915
ARG_OF_PERICENTER = 111.6476
MEAN_ANOMALY   = 248.7336

EPHEMERIS_TYPE = 0
CLASSIFICATION_TYPE = U
NORAD_CAT_ID   = 54039
ELEMENT_SET_NO = 999
REV_AT_EPOCH   = 17423
BSTAR          = .51632608E-3
MEAN_MOTION_DOT = .33062E-3
MEAN_MOTION_DDOT = 0

CCSDS_OMM_VERS = 2.0
CREATION_DATE  = 
ORIGINATOR     = 

OBJECT_NAME    = GSLV R/B
OBJECT_ID      = 2022-138AN
CENTER_NAME    = EARTH
REF_FRAME      = TEME
TIME_SYSTEM    = UTC
MEAN_ELEMENT_THEORY = SGP/SGP4

EPOCH          = 2025-11-26T03:12:53.152128
MEAN_MOTION    = 14.96005219
ECCENTRICITY   = .0022188
INCLINATION    = 87.3842
RA_OF_ASC_NODE = 201.0333
ARG_OF_PERICENTER = 161.3274
MEAN_ANOMALY   = 198.8776

EPHEMERIS_TYPE = 0
CLASSIFICATION_TYPE = U
NORAD_CAT_ID   = 54149
ELEMENT_SET_NO = 999
REV_AT_EPOCH   = 16844
BSTAR          = .32191E-3
MEAN_MOTION_DOT = .3655E-4
MEAN_MOTION_DDOT = 0

CCSDS_OMM_VERS = 2.0
CREATION_DATE  = 
ORIGINATOR     = 

OBJECT_NAME    = XRISM
OBJECT_ID      = 2023-137A
CENTER_NAME    = EARTH
REF_FRAME      = TEME
TIME_SYSTEM    = UTC
MEAN_ELEMENT_THEORY = SGP/SGP4

EPOCH          = 2025-11-26T02:42:17.373312
MEAN_MOTION    = 15.10116726
ECCENTRICITY   = .0007605
INCLINATION    = 31.0013
RA_OF_ASC_NODE = 232.8798
ARG_OF_PERICENTER = 76.1901
MEAN_ANOMALY   = 283.9583

EPHEMERIS_TYPE = 0
CLASSIFICATION_TYPE = U
NORAD_CAT_ID   = 57800
ELEMENT_SET_NO = 999
REV_AT_EPOCH   = 12211
BSTAR          = .42542E-3
MEAN_MOTION_DOT = .7206E-4
MEAN_MOTION_DDOT = 0

CCSDS_OMM_VERS = 2.0
CREATION_DATE  = 
ORIGINATOR     = 

OBJECT_NAME    = ACS3
OBJECT_ID      = 2024-077B
CENTER_NAME    = EARTH
REF_FRAME      = TEME
TIME_SYSTEM    = UTC
MEAN_ELEMENT_THEORY = SGP/SGP4

EPOCH          = 2025-11-25T22:04:38.697312
MEAN_MOTION    = 13.84367329
ECCENTRICITY   = .00719394
INCLINATION    = 97.2909
RA_OF_ASC_NODE = 289.2731
ARG_OF_PERICENTER = 9.7201
MEAN_ANOMALY   = 350.5333

EPHEMERIS_TYPE = 0
CLASSIFICATION_TYPE = U
NORAD_CAT_ID   = 59588
ELEMENT_SET_NO = 999
REV_AT_EPOCH   = 7981
BSTAR          = .1785473E-2
MEAN_MOTION_DOT = .2008E-4
MEAN_MOTION_DDOT = 0

