CZ-2C R/B               
1 52794U 22058K   25330.15202809  .00029551  00000+0  55006-3 0  9994
2 52794  50.1897 128.0672 0047368 129.9465 230.5679 15.47326892194068
CZ-2C R/B               
1 54039U 22132E   25329.99376432  .00033062  00000+0  51633-3 0  9999
2 54039  97.2948 325.8915 0023985 111.6476 248.7336 15.53407415174233
GSLV R/B                
1 54149U 22138AN  25330.13394852  .00003655  00000+0  32191-3 0  9994
2 54149  87.3842 201.0333 0022188 161.3274 198.8776 14.96005219168440
XRISM                   
1 57800U 23137A   25330.11270108  .00007206  00000+0  42542-3 0  9993
2 57800  31.0013 232.8798 0007605  76.1901 283.9583 15.10116726122116
ACS3                    
1 59588U 24077B   25329.91989233  .00002008  00000+0  17855-2 0  9997
2 59588  97.2909 289.2731 0071939   9.7201 350.5333 13.84367329 79816
